[{"OBJECT_NAME":"STARLINK-31380","OBJECT_ID":"2024-031Q","EPOCH":"2026-03-09T21:37:33.114144","MEAN_MOTION":15.3019278,"ECCENTRICITY":0.00010479,"INCLINATION":53.1595,"RA_OF_ASC_NODE":295.8448,"ARG_OF_PERICENTER":100.3993,"MEAN_ANOMALY":259.7126,"EPHEMERIS_TYPE":0,"CLASSIFICATION_TYPE":"U","NORAD_CAT_ID":58979,"ELEMENT_SET_NO":999,"REV_AT_EPOCH":11654,"BSTAR":8.7825199e-5,"MEAN_MOTION_DOT":2.242e-5,"MEAN_MOTION_DDOT":0},{"OBJECT_NAME":"ELECTRON KICK STAGE R\/B","OBJECT_ID":"2025-061J","EPOCH":"2026-03-09T21:50:35.145600","MEAN_MOTION":15.31602074,"ECCENTRICITY":0.00402669,"INCLINATION":97.5479,"RA_OF_ASC_NODE":52.3854,"ARG_OF_PERICENTER":150.2628,"MEAN_ANOMALY":210.0914,"EPHEMERIS_TYPE":0,"CLASSIFICATION_TYPE":"U","NORAD_CAT_ID":63359,"ELEMENT_SET_NO":999,"REV_AT_EPOCH":5306,"BSTAR":0.0006963674,"MEAN_MOTION_DOT":0.00021749,"MEAN_MOTION_DDOT":0}]
